{
  "type": "FeatureCollection",
  "features": [
    {
      "type": "Feature",
      "properties": {
        "norad_id": 38159,
        "name": "FENGYUN 1C DEB",
        "group": "fengyun-1c-debris",
        "lat": -8.855950857850397,
        "lon": -118.44044665795666,
        "alt_km": 845.6823525840118,
        "timestamp": "2025-12-14T09:36:23.326732+00:00",
        "meta_object_name": "FENGYUN 1C DEB",
        "meta_object_id": "1999-025ERG",
        "meta_epoch": "2025-12-04T22:05:20.152032",
        "meta_mean_motion": 14.03448484,
        "meta_eccentricity": 0.005704,
        "meta_inclination": 99.3156,
        "meta_ra_of_asc_node": 230.39,
        "meta_arg_of_pericenter": 2.347,
        "meta_mean_anomaly": 357.7952,
        "meta_ephemeris_type": 0,
        "meta_classification_type": "U",
        "meta_norad_cat_id": 38159,
        "meta_element_set_no": 999,
        "meta_rev_at_epoch": 83002,
        "meta_bstar": 0.0010527,
        "meta_mean_motion_dot": 1.625e-05,
        "meta_mean_motion_ddot": 0,
        "tle_line1": "1 38159U 99025ERG 25338.92037213  .00001625  00000+0  10527-2 0  9999",
        "tle_line2": "2 38159  99.3156 230.3900 0057040   2.3470 357.7952 14.03448484830021"
      },
      "geometry": {
        "type": "Point",
        "coordinates": [
          -118.44044665795666,
          -8.855950857850397
        ]
      }
    },
    {
      "type": "Feature",
      "properties": {
        "norad_id": 38163,
        "name": "FENGYUN 1C DEB",
        "group": "fengyun-1c-debris",
        "lat": -70.98949266818457,
        "lon": 52.763671655199225,
        "alt_km": 844.3624264490218,
        "timestamp": "2025-12-14T09:36:23.326742+00:00",
        "meta_object_name": "FENGYUN 1C DEB",
        "meta_object_id": "1999-025ERL",
        "meta_epoch": "2025-12-08T20:43:41.634048",
        "meta_mean_motion": 14.05900576,
        "meta_eccentricity": 0.0075743,
        "meta_inclination": 99.1292,
        "meta_ra_of_asc_node": 19.3646,
        "meta_arg_of_pericenter": 253.1337,
        "meta_mean_anomaly": 106.1514,
        "meta_ephemeris_type": 0,
        "meta_classification_type": "U",
        "meta_norad_cat_id": 38163,
        "meta_element_set_no": 999,
        "meta_rev_at_epoch": 24487,
        "meta_bstar": 0.0010133,
        "meta_mean_motion_dot": 1.656e-05,
        "meta_mean_motion_ddot": 0,
        "tle_line1": "1 38163U 99025ERL 25342.86367632  .00001656  00000+0  10133-2 0  9990",
        "tle_line2": "2 38163  99.1292  19.3646 0075743 253.1337 106.1514 14.05900576244874"
      },
      "geometry": {
        "type": "Point",
        "coordinates": [
          52.763671655199225,
          -70.98949266818457
        ]
      }
    },
    {
      "type": "Feature",
      "properties": {
        "norad_id": 38166,
        "name": "FENGYUN 1C DEB",
        "group": "fengyun-1c-debris",
        "lat": -44.29388765535516,
        "lon": 100.52401219523313,
        "alt_km": 791.6072716297831,
        "timestamp": "2025-12-14T09:36:23.326752+00:00",
        "meta_object_name": "FENGYUN 1C DEB",
        "meta_object_id": "1999-025ERP",
        "meta_epoch": "2025-12-13T00:15:10.598976",
        "meta_mean_motion": 14.30953593,
        "meta_eccentricity": 0.00523307,
        "meta_inclination": 99.0775,
        "meta_ra_of_asc_node": 90.0996,
        "meta_arg_of_pericenter": 44.0708,
        "meta_mean_anomaly": 316.4627,
        "meta_ephemeris_type": 0,
        "meta_classification_type": "U",
        "meta_norad_cat_id": 38166,
        "meta_element_set_no": 999,
        "meta_rev_at_epoch": 63776,
        "meta_bstar": 0.0038530301,
        "meta_mean_motion_dot": 0.00010248,
        "meta_mean_motion_ddot": 0,
        "tle_line1": "1 38166U 99025ERP 25347.01053934  .00010248  00000+0  38530-2 0  9990",
        "tle_line2": "2 38166  99.0775  90.0996 0052330  44.0708 316.4627 14.30953593637762"
      },
      "geometry": {
        "type": "Point",
        "coordinates": [
          100.52401219523313,
          -44.29388765535516
        ]
      }
    },
    {
      "type": "Feature",
      "properties": {
        "norad_id": 38169,
        "name": "FENGYUN 1C DEB",
        "group": "fengyun-1c-debris",
        "lat": -31.694515621455892,
        "lon": -31.617170399246305,
        "alt_km": 663.6005449721197,
        "timestamp": "2025-12-14T09:36:23.326763+00:00",
        "meta_object_name": "FENGYUN 1C DEB",
        "meta_object_id": "1999-025ERS",
        "meta_epoch": "2025-11-22T03:51:43.920000",
        "meta_mean_motion": 14.70462609,
        "meta_eccentricity": 0.00311315,
        "meta_inclination": 98.9783,
        "meta_ra_of_asc_node": 298.2991,
        "meta_arg_of_pericenter": 127.7379,
        "meta_mean_anomaly": 232.6652,
        "meta_ephemeris_type": 0,
        "meta_classification_type": "U",
        "meta_norad_cat_id": 38169,
        "meta_element_set_no": 999,
        "meta_rev_at_epoch": 60966,
        "meta_bstar": 0.0026738914,
        "meta_mean_motion_dot": 0.00016302,
        "meta_mean_motion_ddot": 0,
        "tle_line1": "1 38169U 99025ERS 25326.16092500  .00016302  00000+0  26739-2 0  9993",
        "tle_line2": "2 38169  98.9783 298.2991 0031131 127.7379 232.6652 14.70462609609660"
      },
      "geometry": {
        "type": "Point",
        "coordinates": [
          -31.617170399246305,
          -31.694515621455892
        ]
      }
    },
    {
      "type": "Feature",
      "properties": {
        "norad_id": 38173,
        "name": "FENGYUN 1C DEB",
        "group": "fengyun-1c-debris",
        "lat": 79.47589197791733,
        "lon": -169.85500929155526,
        "alt_km": 653.1908452342896,
        "timestamp": "2025-12-14T09:36:23.326773+00:00",
        "meta_object_name": "FENGYUN 1C DEB",
        "meta_object_id": "1999-025ERW",
        "meta_epoch": "2025-12-08T11:11:29.864832",
        "meta_mean_motion": 14.37138135,
        "meta_eccentricity": 0.01627901,
        "meta_inclination": 98.9997,
        "meta_ra_of_asc_node": 242.4873,
        "meta_arg_of_pericenter": 125.1423,
        "meta_mean_anomaly": 236.5139,
        "meta_ephemeris_type": 0,
        "meta_classification_type": "U",
        "meta_norad_cat_id": 38173,
        "meta_element_set_no": 999,
        "meta_rev_at_epoch": 60582,
        "meta_bstar": 0.0013067614,
        "meta_mean_motion_dot": 4.475e-05,
        "meta_mean_motion_ddot": 0,
        "tle_line1": "1 38173U 99025ERW 25342.46631788  .00004475  00000+0  13068-2 0  9995",
        "tle_line2": "2 38173  98.9997 242.4873 0162790 125.1423 236.5139 14.37138135605824"
      },
      "geometry": {
        "type": "Point",
        "coordinates": [
          -169.85500929155526,
          79.47589197791733
        ]
      }
    },
    {
      "type": "Feature",
      "properties": {
        "norad_id": 38493,
        "name": "FENGYUN 1C DEB",
        "group": "fengyun-1c-debris",
        "lat": -17.811371401904466,
        "lon": 124.7476371657386,
        "alt_km": 794.872149608992,
        "timestamp": "2025-12-14T09:36:23.326783+00:00",
        "meta_object_name": "FENGYUN 1C DEB",
        "meta_object_id": "1999-025ESC",
        "meta_epoch": "2025-12-13T14:58:26.647392",
        "meta_mean_motion": 13.62319496,
        "meta_eccentricity": 0.04264901,
        "meta_inclination": 99.0796,
        "meta_ra_of_asc_node": 306.9671,
        "meta_arg_of_pericenter": 242.9047,
        "meta_mean_anomaly": 112.7989,
        "meta_ephemeris_type": 0,
        "meta_classification_type": "U",
        "meta_norad_cat_id": 38493,
        "meta_element_set_no": 999,
        "meta_rev_at_epoch": 56510,
        "meta_bstar": 0.00047974908,
        "meta_mean_motion_dot": 6.42e-06,
        "meta_mean_motion_ddot": 0,
        "tle_line1": "1 38493U 99025ESC 25347.62391953  .00000642  00000+0  47975-3 0  9997",
        "tle_line2": "2 38493  99.0796 306.9671 0426490 242.9047 112.7989 13.62319496565102"
      },
      "geometry": {
        "type": "Point",
        "coordinates": [
          124.7476371657386,
          -17.811371401904466
        ]
      }
    },
    {
      "type": "Feature",
      "properties": {
        "norad_id": 38494,
        "name": "FENGYUN 1C DEB",
        "group": "fengyun-1c-debris",
        "lat": 81.55852820182685,
        "lon": -152.382788310133,
        "alt_km": 855.0370070623276,
        "timestamp": "2025-12-14T09:36:23.326794+00:00",
        "meta_object_name": "FENGYUN 1C DEB",
        "meta_object_id": "1999-025ESD",
        "meta_epoch": "2025-12-13T02:19:57.417312",
        "meta_mean_motion": 14.00219719,
        "meta_eccentricity": 0.0387711,
        "meta_inclination": 98.4353,
        "meta_ra_of_asc_node": 297.2806,
        "meta_arg_of_pericenter": 7.7622,
        "meta_mean_anomaly": 352.9315,
        "meta_ephemeris_type": 0,
        "meta_classification_type": "U",
        "meta_norad_cat_id": 38494,
        "meta_element_set_no": 999,
        "meta_rev_at_epoch": 7159,
        "meta_bstar": 0.0082973127,
        "meta_mean_motion_dot": 0.00023608,
        "meta_mean_motion_ddot": 0,
        "tle_line1": "1 38494U 99025ESD 25347.09719233  .00023608  00000+0  82973-2 0  9997",
        "tle_line2": "2 38494  98.4353 297.2806 0387711   7.7622 352.9315 14.00219719 71591"
      },
      "geometry": {
        "type": "Point",
        "coordinates": [
          -152.382788310133,
          81.55852820182685
        ]
      }
    }
  ]
}